NORAD_CAT_ID,OBJECT_NAME,OBJECT_TYPE,EPOCH,MEAN_MOTION,ECCENTRICITY,INCLINATION,RA_OF_ASC_NODE,ARG_OF_PERICENTER,MEAN_ANOMALY,BSTAR,MEAN_MOTION_DOT,MEAN_MOTION_DDOT,TLE_LINE0,TLE_LINE1,TLE_LINE2,SEMIMAJOR_AXIS,PERIOD,APOGEE,PERIGEE,DECAYED
49416.0,STARLINK-3133,PAYLOAD,2022-09-14 04:05:07,15.08840595,0.0001754999999999,53.2166,181.6777,57.4535,302.6626,0.00025026,3.697e-05,0.0,0 STARLINK-3133,1 49416U 21104J   22257.17023082  .00003697  00000-0  25026-3 0  9996,2 49416  53.2166 181.6777 0001755  57.4535 302.6626 15.08840595 47611,6917.879,95.438,540.9580000000002,538.529,0.0
49416.0,STARLINK-3133,PAYLOAD,2022-09-14 07:15:54,15.08841814,0.0001624,53.2165,181.0827,60.099,300.0163,0.00023593,3.469e-05,0.0,0 STARLINK-3133,1 49416U 21104J   22257.30270945  .00003469  00000-0  23593-3 0  9997,2 49416  53.2165 181.0827 0001624  60.0990 300.0163 15.08841814 46544,6917.875,95.437,540.863,538.616,0.0
49416.0,STARLINK-3133,PAYLOAD,2022-09-15 03:55:54,15.08852353,0.0001561,53.2173,177.2168,59.7791,300.3355,7.0601e-05,8.36e-06,0.0,0 STARLINK-3133,1 49416U 21104J   22258.16382532  .00000836  00000-0  70601-4 0  9996,2 49416  53.2173 177.2168 0001561  59.7791 300.3355 15.08852353 46672,6917.843000000003,95.437,540.788,538.628,0.0
49416.0,STARLINK-3133,PAYLOAD,2022-09-15 18:14:22,15.08852119,0.0001883,53.2183,174.5394,57.1749,302.9425,0.00015928,2.249e-05,0.0,0 STARLINK-3133,1 49416U 21104J   22258.75998055  .00002249  00000-0  15928-3 0  9994,2 49416  53.2183 174.5394 0001883  57.1749 302.9425 15.08852119 47853,6917.843000000003,95.437,541.011,538.406,0.0
49416.0,STARLINK-3133,PAYLOAD,2022-09-16 03:46:40,15.08855724,0.0001629,53.2161,172.7558,59.8185,300.2969,0.00024055,3.544e-05,0.0,0 STARLINK-3133,1 49416U 21104J   22259.15741734  .00003544  00000-0  24055-3 0  9999,2 49416  53.2161 172.7558 0001629  59.8185 300.2969 15.08855724 46827,6917.831999999999,95.437,540.8240000000002,538.57,0.0
49416.0,STARLINK-3133,PAYLOAD,2022-09-16 18:05:09,15.08841027,0.0001723,53.2157,170.0793,57.8853,302.2306,4.5646e-05,4.38e-06,0.0,0 STARLINK-3133,1 49416U 21104J   22259.75358373  .00000438  00000-0  45646-4 0  9997,2 49416  53.2157 170.0793 0001723  57.8853 302.2306 15.08841027 48009,6917.877,95.437,540.934,538.55,0.0
49416.0,STARLINK-3133,PAYLOAD,2022-09-17 03:37:29,15.08816951,0.0001603,53.2157,168.2958,55.2716,304.8427,-0.00042528,-7.046e-05,0.0,0 STARLINK-3133,1 49416U 21104J   22260.15103424 -.00007046  00000-0 -42528-3 0  9997,2 49416  53.2157 168.2958 0001603  55.2716 304.8427 15.08816951 48064,6917.951,95.439,540.925,538.707,0.0
49416.0,STARLINK-3133,PAYLOAD,2022-09-17 11:34:25,15.08824097,0.0001606,53.2164,166.8094,55.9516,304.1628,-0.00018266,-3.193e-05,0.0,0 STARLINK-3133,1 49416U 21104J   22260.48223850 -.00003193  00000-0 -18266-3 0  9990,2 49416  53.2164 166.8094 0001606  55.9516 304.1628 15.08824097 47026,6917.929,95.439,540.905,538.683,0.0
49416.0,STARLINK-3133,PAYLOAD,2022-09-17 17:55:57,15.08828725,0.0001488,53.2164,165.6194,47.0082,313.1034,-7.557399999999999e-05,-1.49e-05,0.0,0 STARLINK-3133,1 49416U 21104J   22260.74719792 -.00001490  00000-0 -75574-4 0  9998,2 49416  53.2164 165.6194 0001488  47.0082 313.1034 15.08828725 48150,6917.915,95.438,540.809,538.75,0.0
49416.0,STARLINK-3133,PAYLOAD,2022-09-17 21:06:44,15.0883491,0.0001526,53.2161,165.02599999999995,44.9051,315.2064,6.652e-05,7.71e-06,0.0,0 STARLINK-3133,1 49416U 21104J   22260.87967681  .00000771  00000-0  66520-4 0  9994,2 49416  53.2161 165.0260 0001526  44.9051 315.2064 15.08834910 47080,6917.896,95.438,540.817,538.705,0.0
49416.0,STARLINK-3133,PAYLOAD,2022-09-18 03:28:16,15.08844628,0.00016,53.2155,163.8355,52.3812,307.7325,0.0004176999999999,6.367e-05,0.0,0 STARLINK-3133,1 49416U 21104J   22261.14463424  .00006367  00000-0  41770-3 0  9997,2 49416  53.2155 163.8355 0001600  52.3812 307.7325 15.08844628 48214,6917.866,95.437,540.8380000000002,538.624,0.0
49416.0,STARLINK-3133,PAYLOAD,2022-09-18 17:46:44,15.08853414,0.0001567,53.2153,161.1589,53.8776,306.2361,0.00074527,0.00011597,0.0,0 STARLINK-3133,1 49416U 21104J   22261.74079438  .00011597  00000-0  74527-3 0  9998,2 49416  53.2153 161.1589 0001567  53.8776 306.2361 15.08853414 47215,6917.839,95.437,540.788,538.62,0.0
49416.0,STARLINK-3133,PAYLOAD,2022-09-19 09:40:35,15.08868789,0.0001582,53.2156,158.1852,54.4403,305.6737,0.00065294,0.00010127,0.0,0 STARLINK-3133,1 49416U 21104J   22262.40318473  .00010127  00000-0  65294-3 0  9996,2 49416  53.2156 158.1852 0001582  54.4403 305.6737 15.08868789 47310,6917.792,95.436,540.752,538.563,0.0
49416.0,STARLINK-3133,PAYLOAD,2022-09-19 17:37:30,15.08859488,0.0001841,53.2165,156.6987,80.702,279.418,0.00044025,6.729e-05,0.0,0 STARLINK-3133,1 49416U 21104J   22262.73438300  .00006729  00000-0  44025-3 0  9996,2 49416  53.2165 156.6987 0001841  80.7020 279.4180 15.08859488 48459,6917.821,95.436,540.9590000000002,538.4119999999998,0.0
49416.0,STARLINK-3133,PAYLOAD,2022-09-20 01:34:26,15.08846315,0.0001666999999999,53.2167,155.213,63.3444,296.7718,-0.00012812,-2.327e-05,0.0,0 STARLINK-3133,1 49416U 21104J   22263.06558388 -.00002327  00000-0 -12812-3 0  9993,2 49416  53.2167 155.2130 0001667  63.3444 296.7718 15.08846315 48509,6917.861,95.437,540.879,538.573,0.0
49416.0,STARLINK-3133,PAYLOAD,2022-09-20 09:31:22,15.08843066,0.0001696999999999,53.2165,153.7261,64.2343,295.8824,-0.00012745,-2.316e-05,0.0,0 STARLINK-3133,1 49416U 21104J   22263.39678487 -.00002316  00000-0 -12745-3 0  9995,2 49416  53.2165 153.7261 0001697  64.2343 295.8824 15.08843066 47468,6917.871,95.437,540.91,538.562,0.0
49416.0,STARLINK-3133,PAYLOAD,2022-09-21 09:22:09,15.08841991,0.0001569,53.2166,149.2654,61.4549,298.6601,-5.0575e-05,-1.093e-05,0.0,0 STARLINK-3133,1 49416U 21104J   22264.39038855 -.00001093  00000-0 -50575-4 0  9990,2 49416  53.2166 149.2654 0001569  61.4549 298.6601 15.08841991 48707,6917.874,95.437,540.825,538.654,0.0
49416.0,STARLINK-3133,PAYLOAD,2022-09-22 20:20:38,15.08840955,0.0001488,53.2153,142.7198,51.6839,308.4287,6.4978e-05,7.46e-06,0.0,0 STARLINK-3133,1 49416U 21104J   22265.84766593  .00000746  00000-0  64978-4 0  9992,2 49416  53.2153 142.7198 0001488  51.6839 308.4287 15.08840955 48920,6917.877,95.437,540.7719999999998,538.7130000000002,0.0
49416.0,STARLINK-3133,PAYLOAD,2022-09-22 21:56:01,15.08839517,0.0001644,53.216,142.4234,59.4705,300.6449,0.00011046,1.47e-05,0.0,0 STARLINK-3133,1 49416U 21104J   22265.91390600  .00001470  00000-0  11046-3 0  9994,2 49416  53.2160 142.4234 0001644  59.4705 300.6449 15.08839517 47844,6917.882,95.438,540.884,538.61,0.0
49416.0,STARLINK-3133,PAYLOAD,2022-09-23 04:17:34,15.08828378,0.0001669,53.2164,141.2354,61.2912,298.8248,1.9011e-05,1.4e-07,0.0,0 STARLINK-3133,1 49416U 21104J   22266.17887652  .00000014  00000-0  19011-4 0  9995,2 49416  53.2164 141.2354 0001669  61.2912 298.8248 15.08828378 48979,6917.916,95.438,540.936,538.626,0.0
49416.0,STARLINK-3133,PAYLOAD,2022-09-23 12:14:30,15.08830769,0.0001634,53.2163,139.749,62.3701,297.7457,3.6278e-05,2.89e-06,0.0,0 STARLINK-3133,1 49416U 21104J   22266.51007671  .00000289  00000-0  36278-4 0  9996,2 49416  53.2163 139.7490 0001634  62.3701 297.7457 15.08830769 47933,6917.909000000002,95.438,540.904,538.643,0.0
49416.0,STARLINK-3133,PAYLOAD,2022-09-23 18:36:02,15.0883605,0.000167,53.2163,138.5591,62.5803,297.5359,5.3742e-05,5.67e-06,0.0,0 STARLINK-3133,1 49416U 21104J   22266.77503401  .00000567  00000-0  53742-4 0  9990,2 49416  53.2163 138.5591 0001670  62.5803 297.5359 15.08836050 49061,6917.892,95.438,540.913,538.602,0.0
49416.0,STARLINK-3133,PAYLOAD,2022-09-23 20:11:26,15.08836047,0.0001662,53.2162,138.2615,63.1903,296.9259,5.451300000000001e-05,5.8e-06,0.0,0 STARLINK-3133,1 49416U 21104J   22266.84127410  .00000580  00000-0  54513-4 0  9992,2 49416  53.2162 138.2615 0001662  63.1903 296.9259 15.08836047 47980,6917.892,95.438,540.9069999999998,538.6080000000002,0.0
49416.0,STARLINK-3133,PAYLOAD,2022-09-24 12:05:16,15.08848084,0.0001675999999999,53.2163,135.2881,62.5978,297.5184,0.00013169,1.809e-05,0.0,0 STARLINK-3133,1 49416U 21104J   22267.50366577  .00001809  00000-0  13169-3 0  9991,2 49416  53.2163 135.2881 0001676  62.5978 297.5184 15.08848084 49174,6917.856,95.437,540.88,538.561,0.0
49416.0,STARLINK-3133,PAYLOAD,2022-09-24 20:02:12,15.08854262,0.0001720999999999,53.2155,133.8016,62.7321,297.3846,0.00031497,4.73e-05,0.0,0 STARLINK-3133,1 49416U 21104J   22267.83486507  .00004730  00000-0  31497-3 0  9993,2 49416  53.2155 133.8016 0001721  62.7321 297.3846 15.08854262 48137,6917.837,95.437,540.8919999999998,538.511,0.0
49416.0,STARLINK-3133,PAYLOAD,2022-09-25 11:56:03,15.08845735,0.0001776,53.2151,130.8282,61.9606,298.1566,0.00015097,2.116e-05,0.0,0 STARLINK-3133,1 49416U 21104J   22268.49726790  .00002116  00000-0  15097-3 0  9991,2 49416  53.2151 130.8282 0001776  61.9606 298.1566 15.08845735 49327,6917.863,95.437,540.956,538.499,0.0
49416.0,STARLINK-3133,PAYLOAD,2022-09-25 19:53:00,15.08834955,0.000161,53.2155,129.3413,59.3029,300.8122,3.1749000000000004e-05,2.17e-06,0.0,0 STARLINK-3133,1 49416U 21104J   22268.82847266  .00000217  00000-0  31749-4 0  9993,2 49416  53.2155 129.3413 0001610  59.3029 300.8122 15.08834955 49373,6917.896,95.438,540.875,538.6469999999998,0.0
49416.0,STARLINK-3133,PAYLOAD,2022-09-25 21:28:23,15.08833768,0.0001603,53.2163,129.0435,61.5916,298.5238,7.6611e-05,9.31e-06,0.0,0 STARLINK-3133,1 49416U 21104J   22268.89471465  .00000931  00000-0  76611-4 0  9994,2 49416  53.2163 129.0435 0001603  61.5916 298.5238 15.08833768 48297,6917.899,95.438,540.873,538.655,0.0
49416.0,STARLINK-3133,PAYLOAD,2022-09-26 13:22:15,15.08832636,0.0001601,53.2163,126.0701,60.4571,299.658,-4.8907e-05,-1.066e-05,0.0,0 STARLINK-3133,1 49416U 21104J   22269.55711842 -.00001066  00000-0 -48907-4 0  9993,2 49416  53.2163 126.0701 0001601  60.4571 299.6580 15.08832636 48399,6917.903,95.438,540.875,538.66,0.0
